[
  {
    "name": "A E SIMMONS LTD",
    "postcode": "CM1 2UJ",
    "services": [
      "B2",
      "Digi"
    ]
  },
  {
    "name": "AB Print Group Limited",
    "postcode": "WF17 6GH",
    "services": [
      "B1",
      "B2",
      "Litho",
      "Large Format",
      "Digi",
      "Finishing",
      "Clothing"
    ]
  },
  {
    "name": "AdGifts Online Limited",
    "postcode": "Online",
    "services": [
      "Promo"
    ]
  },
  {
    "name": "AJ Print",
    "postcode": "SA1 1RZ",
    "services": [
      "Promo"
    ]
  },
  {
    "name": "Alf & Alba Design / Emma Weston Illustration",
    "postcode": "online/email",
    "services": []
  },
  {
    "name": "All Colour Envelopes Ltd",
    "postcode": "BA20 2HL",
    "services": [
      "Envelopes"
    ]
  },
  {
    "name": "All Office LTD",
    "postcode": "Online",
    "services": []
  },
  {
    "name": "Allprint Services Ltd",
    "postcode": "nan",
    "services": []
  },
  {
    "name": "Allsopp F F & Co Ltd",
    "postcode": "nan",
    "services": []
  },
  {
    "name": "Alpha Graphics",
    "postcode": "nan",
    "services": [
      "B2",
      "B3",
      "Digi",
      "Indigo"
    ]
  },
  {
    "name": "AMPULLA",
    "postcode": "SK14 2NY",
    "services": []
  },
  {
    "name": "Antson Ltd T/A STENCILS-R-US & Personalised Goodies",
    "postcode": "nan",
    "services": []
  },
  {
    "name": "APL Packaging Ltd",
    "postcode": "nan",
    "services": [
      "Packaging"
    ]
  },
  {
    "name": "Apprintable",
    "postcode": "HA0 1QG",
    "services": [
      "Large Format"
    ]
  },
  {
    "name": "B-Loony",
    "postcode": "HP18 9PH",
    "services": [
      "Promo",
      "POS"
    ]
  },
  {
    "name": "Beanprint Ltd",
    "postcode": "B98 9PB",
    "services": []
  },
  {
    "name": "Beautiful Ribbon Ltd",
    "postcode": "OL9 9LZ",
    "services": []
  },
  {
    "name": "BGC (British Greeting Cards)",
    "postcode": "nan",
    "services": []
  },
  {
    "name": "Birtwells Ltd (Trade Printers)",
    "postcode": "BB5 5SW",
    "services": [
      "B2"
    ]
  },
  {
    "name": "Bizz Badge",
    "postcode": "SL8 5AS",
    "services": [
      "Promo"
    ]
  },
  {
    "name": "Black Fief Ltd (Honest Print)",
    "postcode": "B65 0LA",
    "services": [
      "Digi",
      "Mailing",
      "Fulfillment"
    ]
  },
  {
    "name": "Black Swan Printers (Wakefield) Ltd",
    "postcode": "WF5 9JT",
    "services": []
  },
  {
    "name": "BMPMÂ® - Trade Pricing Pending (British Made Promotional Merchandise)",
    "postcode": "Online",
    "services": []
  },
  {
    "name": "Boss Direct Limited (Phillips)",
    "postcode": "BB1 5NA",
    "services": [
      "B2",
      "Digi"
    ]
  },
  {
    "name": "Box & Print (Dongbao)",
    "postcode": "email",
    "services": [
      "Packaging",
      "Boxes",
      "Bags"
    ]
  },
  {
    "name": "Brandstore (Giftpoint)",
    "postcode": "KT14 7JN",
    "services": [
      "Clothing",
      "Promo",
      "Lanyards & Wristbands"
    ]
  },
  {
    "name": "Browns CTP Ltd",
    "postcode": "M24 1NN",
    "services": [
      "B2",
      "Digi"
    ]
  },
  {
    "name": "Bru Printed paper bags direct",
    "postcode": "TW9 4LN",
    "services": []
  },
  {
    "name": "C & S Digital",
    "postcode": "E15 2SP",
    "services": [
      "Large Format",
      "Vinyls",
      "Signage",
      "Exhibitions",
      "POS"
    ]
  },
  {
    "name": "Caraselle Direct",
    "postcode": "nan",
    "services": []
  },
  {
    "name": "Chapel Press Limited",
    "postcode": "SK6 2SZ",
    "services": [
      "B2",
      "Large Format",
      "Digi",
      "Promo"
    ]
  },
  {
    "name": "Charles Alexander Distribution Ltd (T/A Everything Branded)",
    "postcode": "CM2 0DE",
    "services": []
  },
  {
    "name": "Citiprint",
    "postcode": "BN2 4AT",
    "services": []
  },
  {
    "name": "Clear Prospects Ltd",
    "postcode": "nan",
    "services": [
      "Clothing",
      "Promo"
    ]
  },
  {
    "name": "clever bagger",
    "postcode": "nan",
    "services": [
      "Promo",
      "Bags"
    ]
  },
  {
    "name": "Colour Craft Direct Ltd",
    "postcode": "nan",
    "services": []
  },
  {
    "name": "Colour Graphics",
    "postcode": "LS9 7BR",
    "services": [
      "Signage",
      "Exhibitions",
      "POS"
    ]
  },
  {
    "name": "Colourpoint Group / MB3 Vidioh Ltd",
    "postcode": "CB3 0AX",
    "services": []
  },
  {
    "name": "Cowling and Wilcox",
    "postcode": "nan",
    "services": []
  },
  {
    "name": "Craftmill",
    "postcode": "nan",
    "services": []
  },
  {
    "name": "Creative Branding Workwear",
    "postcode": "BB7 9SP",
    "services": []
  },
  {
    "name": "Creative Ribbon",
    "postcode": "Online",
    "services": [
      "Packaging"
    ]
  },
  {
    "name": "Creative Zed (Zed Creative)",
    "postcode": "BS49 4FS",
    "services": []
  },
  {
    "name": "Data Mail Solutions",
    "postcode": "RH10 9PF",
    "services": [
      "Litho",
      "Digi"
    ]
  },
  {
    "name": "Davpack",
    "postcode": "DE21 7BF",
    "services": []
  },
  {
    "name": "Diamond Press",
    "postcode": "CM9 6TS",
    "services": [
      "B2",
      "B3",
      "Large Format",
      "Digi"
    ]
  },
  {
    "name": "Direct Textiles and Bags",
    "postcode": "LE14 3NQ",
    "services": [
      "Clothing",
      "Bags"
    ]
  },
  {
    "name": "Display Wizard",
    "postcode": "Online",
    "services": [
      "Large Format",
      "Signage",
      "Exhibitions",
      "POS"
    ]
  },
  {
    "name": "Dominion Print",
    "postcode": "BD5 9AG",
    "services": []
  },
  {
    "name": "DS Smith",
    "postcode": "W2 1DL",
    "services": []
  },
  {
    "name": "DXG Media",
    "postcode": "SK16 4PW",
    "services": [
      "B2",
      "Litho",
      "Digi"
    ]
  },
  {
    "name": "E Petch Printers Ltd",
    "postcode": "SK15 2AU",
    "services": []
  },
  {
    "name": "Elasto Ltd",
    "postcode": "online",
    "services": [
      "Promo",
      "Lanyards & Wristbands",
      "Bags"
    ]
  },
  {
    "name": "Elite Sign Solutions Ltd",
    "postcode": "M24 2FL",
    "services": [
      "Large Format",
      "Vinyls",
      "Signage",
      "Exhibitions",
      "POS"
    ]
  },
  {
    "name": "Entwistle",
    "postcode": "M11 2NN",
    "services": [
      "Litho",
      "Large Format",
      "Digi",
      "POS"
    ]
  },
  {
    "name": "Envelope Works",
    "postcode": "BB1 2QJ",
    "services": [
      "Litho",
      "Flexo",
      "Envelopes"
    ]
  },
  {
    "name": "Envelopes.org Ltd",
    "postcode": "nan",
    "services": []
  },
  {
    "name": "Everything Branded",
    "postcode": "LE1 6LP",
    "services": [
      "Promo"
    ]
  },
  {
    "name": "Face Communications",
    "postcode": "SG1 2EQ",
    "services": [
      "Large Format",
      "Digi"
    ]
  },
  {
    "name": "Fen Regis Trophies Ltd",
    "postcode": "PE13 1RD",
    "services": []
  },
  {
    "name": "Finishline Print Finishers Ltd (Pennine Mailing)",
    "postcode": "nan",
    "services": []
  },
  {
    "name": "First Colour",
    "postcode": "W1T 1PA",
    "services": []
  },
  {
    "name": "Fluid",
    "postcode": "KT8 2RF",
    "services": [
      "Promo"
    ]
  },
  {
    "name": "Flying Colours",
    "postcode": "ST18 0GN",
    "services": []
  },
  {
    "name": "Foldabox Limited",
    "postcode": "B95 5AN",
    "services": [
      "Packaging",
      "Boxes"
    ]
  },
  {
    "name": "Fosco Hayes Hurdley Ltd",
    "postcode": "B19 3XB",
    "services": [
      "Large Format",
      "Vinyls"
    ]
  },
  {
    "name": "Fruugo",
    "postcode": "PR4 6RR",
    "services": []
  },
  {
    "name": "Gemini Digital Colour Ltd",
    "postcode": "E1W 3HB",
    "services": []
  },
  {
    "name": "Geoff Neal Group",
    "postcode": "nan",
    "services": [
      "B1",
      "Litho",
      "Large Format",
      "Digi",
      "Finishing",
      "Binding",
      "Boxes",
      "Signage",
      "POS",
      "Mailing"
    ]
  },
  {
    "name": "Gilt Edged Promotions Limited",
    "postcode": "nan",
    "services": [
      "Clothing",
      "Promo",
      "Bags"
    ]
  },
  {
    "name": "Glassbottles.co.uk",
    "postcode": "nan",
    "services": []
  },
  {
    "name": "Hamilton Rand",
    "postcode": "B44 8NH",
    "services": []
  },
  {
    "name": "Handy Labels",
    "postcode": "BS20 7BL",
    "services": [
      "Labels"
    ]
  },
  {
    "name": "Hangerworld Ltd",
    "postcode": "FY4 4QQ",
    "services": [
      "Promo"
    ]
  },
  {
    "name": "Hello Print",
    "postcode": "Online",
    "services": []
  },
  {
    "name": "HPS Hardings Print Solutions LTD",
    "postcode": "BN3 2PJ",
    "services": [
      "Litho",
      "Digi",
      "Finishing",
      "Binding"
    ]
  },
  {
    "name": "ID&C Ltd",
    "postcode": "TN2 3GP",
    "services": [
      "Promo"
    ]
  },
  {
    "name": "Impact Boston Ltd",
    "postcode": "PE25 3SN",
    "services": [
      "Labels"
    ]
  },
  {
    "name": "Ink & Drop Ltd",
    "postcode": "NE1 4PG",
    "services": []
  },
  {
    "name": "Inketch Ltd",
    "postcode": "nan",
    "services": []
  },
  {
    "name": "InkThreadable",
    "postcode": "nan",
    "services": []
  },
  {
    "name": "Jackson Trophies Ltd",
    "postcode": "nan",
    "services": []
  },
  {
    "name": "John Price Printers Limited",
    "postcode": "WV14 0NW",
    "services": [
      "B2",
      "Litho",
      "Digi"
    ]
  },
  {
    "name": "JR Press Ltd",
    "postcode": "NN11 8RF",
    "services": [
      "Packaging"
    ]
  },
  {
    "name": "JWP Industries",
    "postcode": "M32 9AU",
    "services": []
  },
  {
    "name": "Kolorcraft Ltd",
    "postcode": "WF5 9JE",
    "services": []
  },
  {
    "name": "Kwality Printer",
    "postcode": "WA1 3RX",
    "services": []
  },
  {
    "name": "Labels UK Ltd",
    "postcode": "M44 6ZQ",
    "services": [
      "Labels"
    ]
  },
  {
    "name": "Laltex Promo Ltd",
    "postcode": "WN7 3XH",
    "services": [
      "Promo"
    ]
  },
  {
    "name": "Laser Made Occasions",
    "postcode": "S75 1JU",
    "services": []
  },
  {
    "name": "Leach Colour Ltd",
    "postcode": "HD2 1GN",
    "services": []
  },
  {
    "name": "Lifts and Gravy",
    "postcode": "DA12 5PX",
    "services": []
  },
  {
    "name": "Little Green Paper Shop",
    "postcode": "CW11 3PA",
    "services": []
  },
  {
    "name": "Luminous Television limited",
    "postcode": "nan",
    "services": []
  },
  {
    "name": "M. Widdup & Sons Ltd",
    "postcode": "BD2 2HG",
    "services": []
  },
  {
    "name": "Mart Smiths",
    "postcode": "BD4 7PQ",
    "services": [
      "Finishing",
      "Labels",
      "Packaging",
      "Boxes",
      "Bags",
      "Envelopes"
    ]
  },
  {
    "name": "McLaren Ventures LTD",
    "postcode": "FY8 1NJ",
    "services": []
  },
  {
    "name": "Medal Studio",
    "postcode": "nan",
    "services": []
  },
  {
    "name": "Midocean",
    "postcode": "Online",
    "services": [
      "Promo"
    ]
  },
  {
    "name": "Midpac - C.R.Walter Coventry Limited",
    "postcode": "Online",
    "services": []
  },
  {
    "name": "Molygran",
    "postcode": "nan",
    "services": [
      "Signage",
      "Exhibitions"
    ]
  },
  {
    "name": "Moo Print Limited",
    "postcode": "NW1 8AB",
    "services": []
  },
  {
    "name": "Morplan Ltd",
    "postcode": "Online",
    "services": []
  },
  {
    "name": "MPS Print",
    "postcode": "M33 6LB",
    "services": []
  },
  {
    "name": "Newspaper Club",
    "postcode": "Online",
    "services": []
  },
  {
    "name": "Nisbets Plc",
    "postcode": "nan",
    "services": []
  },
  {
    "name": "No Issue",
    "postcode": "Online",
    "services": [
      "Digi",
      "Labels",
      "Packaging",
      "Tissue Paper"
    ]
  },
  {
    "name": "Northern Print Solutions",
    "postcode": "DH6 5PF",
    "services": []
  },
  {
    "name": "Northstar - Printing.com",
    "postcode": "OL10 2TA",
    "services": []
  },
  {
    "name": "OLYMPICPRESS",
    "postcode": "GL20 8NB",
    "services": []
  },
  {
    "name": "On Demand Print Services",
    "postcode": "EN6 3DQ",
    "services": [
      "Packaging"
    ]
  },
  {
    "name": "Out of Eden Ltd",
    "postcode": "CA17 4AP",
    "services": []
  },
  {
    "name": "Oversolve Limited",
    "postcode": "EN11 0EX",
    "services": [
      "Bags"
    ]
  },
  {
    "name": "packgenie",
    "postcode": "SL4 1SE",
    "services": []
  },
  {
    "name": "PackMe Limited",
    "postcode": "HP2 7DU",
    "services": []
  },
  {
    "name": "Parties & Signs",
    "postcode": "SS17 0PY",
    "services": []
  },
  {
    "name": "Pen Warehouse",
    "postcode": "AL3 6PQ",
    "services": [
      "Promo"
    ]
  },
  {
    "name": "Personalise Online",
    "postcode": "NN15 6NL",
    "services": [
      "Promo"
    ]
  },
  {
    "name": "Personalised Luggage Ltd",
    "postcode": "BH11 8JX",
    "services": [
      "Promo"
    ]
  },
  {
    "name": "PF Concept",
    "postcode": "Online",
    "services": [
      "Promo"
    ]
  },
  {
    "name": "Photobox",
    "postcode": "WC1N 1EX",
    "services": []
  },
  {
    "name": "Poly Bags",
    "postcode": "NW10 7PA",
    "services": [
      "Packaging",
      "Bags"
    ]
  },
  {
    "name": "Positive Media Promotions Ltd",
    "postcode": "OL9 8AU",
    "services": []
  },
  {
    "name": "Postpack Ltd",
    "postcode": "CO3 0JN",
    "services": []
  },
  {
    "name": "Press To Print",
    "postcode": "RG2 0BZ",
    "services": []
  },
  {
    "name": "Pressision",
    "postcode": "LS12 5JB",
    "services": []
  },
  {
    "name": "Print 4 Ltd",
    "postcode": "NG6 8WA",
    "services": [
      "Large Format",
      "Finishing",
      "Packaging"
    ]
  },
  {
    "name": "Print and Packaging Solutions Ltd",
    "postcode": "S60 1FB",
    "services": []
  },
  {
    "name": "Print Evolved (VR Print)",
    "postcode": "IG10 4PL",
    "services": [
      "Digi",
      "Finishing",
      "Foil",
      "Mailing"
    ]
  },
  {
    "name": "Print On",
    "postcode": "SK3 0SD",
    "services": [
      "Large Format",
      "Digi",
      "Vinyls",
      "Boxes",
      "Bags",
      "Envelopes",
      "Signage",
      "POS",
      "Fulfillment"
    ]
  },
  {
    "name": "Printed Cup Company",
    "postcode": "nan",
    "services": [
      "Packaging"
    ]
  },
  {
    "name": "ProCo",
    "postcode": "S9 4WJ",
    "services": [
      "B2",
      "Litho",
      "Large Format",
      "Digi",
      "Mailing"
    ]
  },
  {
    "name": "Promerch World Ltd",
    "postcode": "LE3 6DR",
    "services": [
      "Promo"
    ]
  },
  {
    "name": "Promotional Ceramics Ltd",
    "postcode": "NG10 4HN",
    "services": [
      "Promo"
    ]
  },
  {
    "name": "Pure Innovations",
    "postcode": "HD6 1LU",
    "services": []
  },
  {
    "name": "Pure Print",
    "postcode": "TN22 5AA",
    "services": []
  },
  {
    "name": "Quick Print UK",
    "postcode": "nan",
    "services": []
  },
  {
    "name": "Raja Pack",
    "postcode": "OX16 2RL",
    "services": []
  },
  {
    "name": "Rayleigh Silkscreen",
    "postcode": "SS6 9RS",
    "services": [
      "Screen Printing"
    ]
  },
  {
    "name": "Richard Haworth Ltd",
    "postcode": "M26 1RH",
    "services": []
  },
  {
    "name": "Ronset Ltd",
    "postcode": "BB1 6BE",
    "services": []
  },
  {
    "name": "Route 1 Fulfilment",
    "postcode": "MK12 5QF",
    "services": [
      "Fulfillment"
    ]
  },
  {
    "name": "Route One Print",
    "postcode": "S63 5DR",
    "services": []
  },
  {
    "name": "Sell Sell Sell t/a Shredded-Paper.co.uk",
    "postcode": "SK8 2PN",
    "services": []
  },
  {
    "name": "Showcase Creative",
    "postcode": "GU46 6GA",
    "services": []
  },
  {
    "name": "Silverline Trading UK Ltd",
    "postcode": "SA4 9WF",
    "services": [
      "Promo"
    ]
  },
  {
    "name": "Simple Sourcing",
    "postcode": "CM14 4DR",
    "services": [
      "Clothing",
      "Promo",
      "Lanyards & Wristbands",
      "Bags"
    ]
  },
  {
    "name": "Simply Crackers",
    "postcode": "CO3 8PH",
    "services": []
  },
  {
    "name": "Simpson Group",
    "postcode": "NE33 1RF",
    "services": []
  },
  {
    "name": "Sinatra Marketing Group",
    "postcode": "MK15 0DU",
    "services": [
      "B1"
    ]
  },
  {
    "name": "Smoke-king",
    "postcode": "E1 8JN",
    "services": []
  },
  {
    "name": "Solopress",
    "postcode": "SS2 5QF",
    "services": []
  },
  {
    "name": "SR Mailing",
    "postcode": "M3 1FB",
    "services": []
  },
  {
    "name": "Sticker mule",
    "postcode": "Online",
    "services": []
  },
  {
    "name": "Stitch-it",
    "postcode": "RM3 0HU",
    "services": [
      "Clothing",
      "Promo"
    ]
  },
  {
    "name": "Storage World",
    "postcode": "M9 8AE",
    "services": []
  },
  {
    "name": "Synk Creative",
    "postcode": "N1 7GU",
    "services": []
  },
  {
    "name": "Tealwood Group",
    "postcode": "SW5 0BS",
    "services": [
      "Screen Printing"
    ]
  },
  {
    "name": "TFW Printers",
    "postcode": "SE18 6RS",
    "services": [
      "Large Format",
      "Finishing",
      "Vinyls",
      "Binding",
      "Labels",
      "Packaging",
      "Tissue Paper",
      "Boxes",
      "Envelopes",
      "Exhibitions",
      "POS",
      "Fulfillment"
    ]
  },
  {
    "name": "The Branded company (RG Distribution Ltd)",
    "postcode": "LE4 5HH",
    "services": [
      "Promo"
    ]
  },
  {
    "name": "The Carrier Bag Shop",
    "postcode": "EN3 7QN",
    "services": [
      "Bags"
    ]
  },
  {
    "name": "The copy Surgery",
    "postcode": "PO21 2PX",
    "services": []
  },
  {
    "name": "The Envelope People Limited",
    "postcode": "SW18 1PE",
    "services": []
  },
  {
    "name": "The Hanger Store",
    "postcode": "M17 1AF",
    "services": [
      "Promo"
    ]
  },
  {
    "name": "The Paper Bag Company",
    "postcode": "RG17 0DY",
    "services": [
      "Bags"
    ]
  },
  {
    "name": "The Paper Bag Store",
    "postcode": "CM1 4LN",
    "services": []
  },
  {
    "name": "The Plastic Card People",
    "postcode": "NW10 6EX",
    "services": []
  },
  {
    "name": "The Printed Pen Company Ltd",
    "postcode": "CM6 1GE",
    "services": []
  },
  {
    "name": "The Ribbon Company",
    "postcode": "SN1 2PG",
    "services": [
      "Promo"
    ]
  },
  {
    "name": "The Sweet People Ltd",
    "postcode": "HP5 2UU",
    "services": [
      "Promo",
      "Confectionary"
    ]
  },
  {
    "name": "The Towel Shop",
    "postcode": "BB5 1HL",
    "services": []
  },
  {
    "name": "The Umbrella Company",
    "postcode": "RG2 0NH",
    "services": [
      "Promo"
    ]
  },
  {
    "name": "The Wrist Band Company",
    "postcode": "SA8 4EN",
    "services": [
      "Promo",
      "Lanyards & Wristbands"
    ]
  },
  {
    "name": "Three Five Four",
    "postcode": "SW18 2EN",
    "services": []
  },
  {
    "name": "Tiny Box Company",
    "postcode": "RH15 9RQ",
    "services": [
      "Boxes"
    ]
  },
  {
    "name": "Top It Off Drinks Ltd",
    "postcode": "HP5 1SD",
    "services": [
      "Promo",
      "Confectionary"
    ]
  },
  {
    "name": "Top Notch Signs Ltd",
    "postcode": "E17 8AH",
    "services": []
  },
  {
    "name": "Transpack Ltd",
    "postcode": "SO40 3SH",
    "services": []
  },
  {
    "name": "UK Lanyard Makers Ltd",
    "postcode": "DY4 9DD",
    "services": [
      "Promo"
    ]
  },
  {
    "name": "UK POS",
    "postcode": "SK6 2TD",
    "services": [
      "POS"
    ]
  },
  {
    "name": "UK Printing Company",
    "postcode": "CH5 2QJ",
    "services": [
      "Promo",
      "POS"
    ]
  },
  {
    "name": "UKPackaging.com",
    "postcode": "nan",
    "services": []
  },
  {
    "name": "UKPrinting.com",
    "postcode": "nan",
    "services": []
  },
  {
    "name": "Ultimate Productions Limited",
    "postcode": "nan",
    "services": []
  },
  {
    "name": "Ultra Event Production",
    "postcode": "LL13 9UZ",
    "services": []
  },
  {
    "name": "Upholstery 2 U",
    "postcode": "S75 1JU",
    "services": []
  },
  {
    "name": "USB2U",
    "postcode": "PE30 4HU",
    "services": [
      "Promo"
    ]
  },
  {
    "name": "Venture Display Limited",
    "postcode": "Online",
    "services": []
  },
  {
    "name": "W.F. Denny",
    "postcode": "nan",
    "services": []
  },
  {
    "name": "Wearable Print Group",
    "postcode": "BB1 2EE",
    "services": [
      "Clothing",
      "Promo"
    ]
  },
  {
    "name": "Whiterose Packaging",
    "postcode": "LS12 6DN",
    "services": []
  },
  {
    "name": "Workwear Express Limited",
    "postcode": "DH7 8NG",
    "services": []
  },
  {
    "name": "world Of Envelopes Ltd",
    "postcode": "HP19 8UN",
    "services": []
  },
  {
    "name": "XL Displays",
    "postcode": "PE2 6UP",
    "services": [
      "POS"
    ]
  },
  {
    "name": "Yoga Studio",
    "postcode": "EX15 1BT",
    "services": []
  },
  {
    "name": "ZELL-EM Hanger print",
    "postcode": "FY8 3FR",
    "services": []
  }
]
